{
"type": "FeatureCollection",
"name": "limite_nacional",
"crs": { "type": "name", "properties": { "name": "urn:ogc:def:crs:OGC:1.3:CRS84" } },
"features": [
{"type":"Feature","properties":{"OBJECTID":1,"popup":"LIMITE CONTESTADO BR.","area_km2":253,"observ":"Sup. terrestre de 176 215 km²  y 1199 km² es de los lagos artificiales del Río Negro. Islas en el río Uruguay ( total de 105 km²), Aguas jurisdiccionales(Río Uruguay, Río de la Plata y laguna Merín) 16 799 km² área , Mar territorial de 125","limites":"http://www.sgm.gub.uy/index.php/informacion-territorial/limites-con-brasil"},"geometry":{"type":"GeometryCollection","geometries":[]}},
{"type":"Feature","properties":{"OBJECTID":2,"popup":"URUGUAY","area_km2":176215,"observ":"Sup. terrestre de 176 215 km²  y 1199 km² es de los lagos artificiales del Río Negro. Islas en el río Uruguay ( total de 105 km²), Aguas jurisdiccionales(Río Uruguay, Río de la Plata y laguna Merín) 16 799 km² área , Mar territorial de 125","limites":"http://www.sgm.gub.uy/index.php/informacion-territorial/situacion-geografica"},"geometry":{"type":"GeometryCollection","geometries":[]}},
{"type":"Feature","properties":{"OBJECTID":3,"popup":"RIO URUGUAY","area_km2":1056,"observ":"El Río Uruguay es un curso de agua internacional y su cuenca hidrográfica se encuentra formando parte de los territorios de Argentina, Brasil y Uruguay abarcando un área total de aproximadamente 339.000 Km2.","limites":"http://www.sgm.gub.uy/index.php/informacion-territorial/limites-con-argentina"},"geometry":{"type":"GeometryCollection","geometries":[]}},
{"type":"Feature","properties":{"OBJECTID":4,"popup":"RIO DE LA PLATA","area_km2":15273,"observ":"El Río de la Plata constituye el umbral sobre el Océano Atlántico de la segunda cuenca fluvial de América del Sur: la Cuenca del Plata (cerca de 3,1 millones de km2)","limites":"http://www.sgm.gub.uy/index.php/informacion-territorial/limites-con-argentina"},"geometry":{"type":"GeometryCollection","geometries":[]}},
{"type":"Feature","properties":{"OBJECTID":5,"popup":"MAR TERRITORIAL","area_km2":125057,"observ":"El límite lateral marítimo toma como referencia la línea que parte del faro Chuy en forma perpendicular a la línea de costa. Esta línea forma un ángulo de 128° con el meridiano que pasa por el faro. Se extiende hasta las 200 millas.","limites":"http://www.sgm.gub.uy/index.php/informacion-territorial/limites-con-argentina"},"geometry":{"type":"GeometryCollection","geometries":[]}},
{"type":"Feature","properties":{"OBJECTID":6,"popup":"LAGUNA MERIN","area_km2":1054,"observ":"La laguna Merín ( es una extensa laguna, con un área de 3.750 km², que se encuentra en la frontera entre Brasil y Uruguay. Su nombre deriva del vocablo tupí-guaraní \"mi´rí\", que significa «pequeña».","limites":"http://www.sgm.gub.uy/index.php/informacion-territorial/limites-con-brasil"},"geometry":{"type":"GeometryCollection","geometries":[]}}
]
}
